STARLINK-3754           
1 52350U 22045V   24076.55343075  .00000040  00000+0  20617-4 0  9992
2 52350  53.2230 205.4101 0001378  82.7205 277.3944 15.08838354106613
STARLINK-3838           
1 52352U 22045X   24076.54239357 -.00000605  00000+0 -19937-4 0  9992
2 52352  53.2155 205.4566 0001729  73.3024 286.8158 15.08832001106616
STARLINK-3807           
1 52353U 22045Y   24076.54974922  .00000561  00000+0  53320-4 0  9990
2 52353  53.2159 205.4220 0001578  92.6621 267.4552 15.08840524106619
STARLINK-3876           
1 52354U 22045Z   24076.53134960 -.00000039  00000+0  15644-4 0  9998
2 52354  53.2180 205.5003 0001276 101.5154 258.5982 15.08837277106619
STARLINK-3877           
1 52355U 22045AA  24076.54606939  .00000334  00000+0  39089-4 0  9996
2 52355  53.2131 205.4372 0001534  89.2952 270.8216 15.08836652106612
STARLINK-3801           
1 52356U 22045AB  24076.53503330  .00001629  00000+0  12041-3 0  9993
2 52356  53.2179 205.5144 0001472 106.3874 253.7280 15.08837284106611
STARLINK-3821           
1 52357U 22045AC  24075.81006652  .00000052  00000+0  21365-4 0  9998
2 52357  53.2163 208.7419 0000601  32.9488 327.1541 15.08837707106507
STARLINK-3837           
1 52358U 22045AD  24076.52031001  .00000517  00000+0  50600-4 0  9994
2 52358  53.2156 205.5524 0001507 109.1452 250.9703 15.08835304106612
STARLINK-3853           
1 52359U 22045AE  24076.53597726 -.00003082  00000+0 -17557-3 0  9992
2 52359  53.2143 205.4865 0002769 131.4713 228.6517 15.08845718106610
STARLINK-3824           
1 52360U 22045AF  24076.51387142  .00000538  00000+0  51887-4 0  9997
2 52360  53.2165 195.5823 0001267  68.1892 291.9235 15.08832692106735
STARLINK-3728           
1 52361U 22045AG  24076.52765995  .00000927  00000+0  76296-4 0  9998
2 52361  53.2143 205.5165 0001339 106.4998 253.6141 15.08843520106616
STARLINK-3848           
1 52362U 22045AH  24076.51018998  .00000037  00000+0  20424-4 0  9996
2 52362  53.2193 195.6010 0001611  99.5570 260.5604 15.08833189106746
STARLINK-3830           
1 52363U 22045AJ  24076.52399067  .00001478  00000+0  11096-3 0  9991
2 52363  53.2171 205.5355 0001253  93.9746 266.1389 15.08836096106619
STARLINK-3820           
1 52364U 22045AK  24075.76681652 -.00000914  00000+0 -39347-4 0  9997
2 52364  53.2163 198.8418 0001388  97.8306 262.2844 15.08841595106634
STARLINK-3874           
1 52365U 22045AL  24076.51754860  .00000705  00000+0  62408-4 0  9994
2 52365  53.2165 195.5652 0001890  85.6874 274.4334 15.08840442106745
STARLINK-3808           
1 52366U 22045AM  24076.49914992  .00000562  00000+0  53419-4 0  9999
2 52366  53.2174 195.6461 0001586 106.1538 253.9629 15.08829194106743
STARLINK-3817           
1 52367U 22045AN  24075.51290360 -.00000756  00000+0 -29442-4 0  9994
2 52367  53.2167 200.0713 0001493 113.4547 246.6602 15.08838433106594
STARLINK-3834           
1 52368U 22045AP  24076.55434766  .00000584  00000+0  54804-4 0  9997
2 52368  53.2175 195.4024 0001524 107.1562 252.9597 15.08835760106748
STARLINK-3841           
1 52369U 22045AQ  24075.50922644  .00000310  00000+0  37583-4 0  9991
2 52369  53.2163 200.0900 0001354  88.9558 271.1589 15.08837827106597
STARLINK-3827           
1 52370U 22045AR  24075.50282656 -.00000705  00000+0 -26235-4 0  9997
2 52370  53.2151 200.1287 0001589 110.4963 249.6199 15.08832626106595
STARLINK-3798           
1 52371U 22045AS  24076.55897846 -.00006298  00000+0 -37815-3 0  9995
2 52371  53.2159 195.3856 0001223  98.9899 261.1232 15.08820691106747
STARLINK-3796           
1 52372U 22045AT  24076.55066932  .00000764  00000+0  66078-4 0  9994
2 52372  53.2170 195.4168 0001517 111.4994 248.6160 15.08836283106745
STARLINK-3550           
1 52373U 22045AU  24076.53962746 -.00000009  00000+0  17504-4 0  9994
2 52373  53.2172 195.4683 0001342  86.0859 274.0287 15.08838912106758
STARLINK-3762           
1 52374U 22045AV  24076.54330470  .00000732  00000+0  64095-4 0  9998
2 52374  53.2186 195.4537 0001449  97.4879 262.6278 15.08837467106755
STARLINK-3785           
1 52375U 22045AW  24076.54698817  .00006329  00000+0  41539-3 0  9996
2 52375  53.2154 195.4330 0001754 117.3111 242.8060 15.08837701106752
STARLINK-3767           
1 52376U 22045AX  24076.53594723  .00001505  00000+0  11264-3 0  9990
2 52376  53.2173 195.4864 0001433  92.8085 267.3071 15.08839455106759
STARLINK-3805           
1 52377U 22045AY  24076.55805186  .00000838  00000+0  70722-4 0  9994
2 52377  53.2176 195.6072 0001387  92.3891 267.7260 15.08836067106743
STARLINK-3806           
1 52378U 22045AZ  24076.52858627  .00000349  00000+0  39995-4 0  9994
2 52378  53.2141 195.5150 0001602  87.3716 272.7460 15.08840233106751
STARLINK-3800           
1 52379U 22045BA  24076.53226519  .00001374  00000+0  10442-3 0  9999
2 52379  53.2191 195.5013 0001441 104.0519 256.0634 15.08835688106750
STARLINK-3793           
1 52380U 22045BB  24075.51750468  .00000324  00000+0  38448-4 0  9994
2 52380  53.2154 190.0861 0001507  82.0852 278.0311 15.08840388106737
STARLINK-3803           
1 52381U 22045BC  24076.52492633  .00000486  00000+0  48599-4 0  9991
2 52381  53.2182 195.5351 0001199  92.8606 267.2523 15.08835942106753
STARLINK-3799           
1 52382U 22045BD  24076.52123247 -.00000269  00000+0  12289-5 0  9992
2 52382  53.2226 195.5624 0001873  96.3944 263.7261 15.08836884106755
STARLINK-3811           
1 52383U 22045BE  24076.54423114 -.00000049  00000+0  15035-4 0  9998
2 52383  53.2175 185.4756 0001351  83.1566 276.9580 15.08837393106899
STARLINK-3870           
1 52451U 22049A   24076.30411070 -.00000111  00000+0  11152-4 0  9996
2 52451  53.2169  76.5258 0001601  91.3309 268.7866 15.08836409103068
STARLINK-3909           
1 52452U 22049B   24076.38134817  .00004462  00000+0  29802-3 0  9998
2 52452  53.2178  76.0508 0001645  89.6912 270.4269 15.08867366103074
STARLINK-3872           
1 52453U 22049C   24076.23050705  .00000217  00000+0  31737-4 0  9991
2 52453  53.2167  76.8512 0001467  95.8979 264.2181 15.08837190103054
STARLINK-3888           
1 52454U 22049D   24076.16794881  .00000503  00000+0  49711-4 0  9993
2 52454  53.2167  77.1331 0001338  94.9465 265.1679 15.08834457103049
STARLINK-3890           
1 52455U 22049E   24076.16154458  .00001900  00000+0  13746-3 0  9994
2 52455  53.2172  77.1619 0001747 102.7297 257.3891 15.08827374103049
STARLINK-3896           
1 52456U 22049F   24076.22410175  .00000869  00000+0  72676-4 0  9994
2 52456  53.2169  76.8829 0001498  88.8031 271.3133 15.08839007103050
STARLINK-3899           
1 52457U 22049G   24075.29210407 -.00000533  00000+0 -15406-4 0  9995
2 52457  53.2178  81.0552 0001526  94.7874 265.3292 15.08838193102755
STARLINK-3898           
1 52458U 22049H   24076.21673676  .00001019  00000+0  82116-4 0  9990
2 52458  53.2160  76.9123 0001447 101.1815 258.9339 15.08843873103059
STARLINK-3856           
1 52459U 22049J   24076.20198870  .00000921  00000+0  75945-4 0  9991
2 52459  53.2176  66.9815 0001376  89.4319 270.6831 15.08835870103182
STARLINK-3865           
1 52460U 22049K   24076.26085750  .00000444  00000+0  45995-4 0  9993
2 52460  53.2170  66.6669 0001489  94.0307 266.0856 15.08837172103190
STARLINK-3900           
1 52461U 22049L   24076.19922643  .00000812  00000+0  69076-4 0  9992
2 52461  53.2182  56.9946 0001570  96.4599 263.6572 15.08842827103320
STARLINK-3903           
1 52462U 22049M   24076.19558221  .00000149  00000+0  27479-4 0  9994
2 52462  53.2176  67.0190 0001506 100.4968 259.6194 15.08841798103188
STARLINK-3885           
1 52463U 22049N   24076.19557004 -.00002093  00000+0 -11351-3 0  9996
2 52463  53.2179  57.0127 0001432  95.9236 264.1919 15.08827007103324
STARLINK-3904           
1 52464U 22049P   24075.27094652 -.00000192  00000+0  60573-5 0  9999
2 52464  53.2188  71.1592 0001598 100.8375 259.2797 15.08837673102880
STARLINK-3863           
1 52465U 22049Q   24076.25810677  .00000370  00000+0  41306-4 0  9991
2 52465  53.2166  56.7310 0001523 100.7539 259.3624 15.08843596103335
STARLINK-3840           
1 52466U 22049R   24075.27559959 -.00000126  00000+0  10180-4 0  9992
2 52466  53.2179  71.3094 0001511  97.1038 263.0126 15.08834794102880
STARLINK-3873           
1 52467U 22049S   24076.38965921  .00000976  00000+0  79375-4 0  9999
2 52467  53.2181  66.1383 0001658 104.7399 255.3777 15.08845692103217
STARLINK-3864           
1 52468U 22049T   24076.17622248  .00001191  00000+0  92879-4 0  9993
2 52468  53.2180  67.0889 0001578  96.9658 263.1514 15.08844546103188
STARLINK-3828           
1 52469U 22049U   24076.38230324  .00000047  00000+0  21032-4 0  9999
2 52469  53.2184  66.1683 0001560 104.0564 256.0601 15.08840402103212
STARLINK-3859           
1 52470U 22049V   24076.16886425  .00001178  00000+0  92104-4 0  9990
2 52470  53.2178  67.1298 0001639  83.9430 276.1749 15.08843732103185
STARLINK-3862           
1 52471U 22049W   24076.37959024  .00007021  00000+0  45906-3 0  9990
2 52471  53.2179  66.1877 0001690 106.6032 253.5146 15.08815929103218
STARLINK-3881           
1 52472U 22049X   24076.16518847  .00000904  00000+0  74891-4 0  9991
2 52472  53.2191  67.1451 0001832  82.6298 277.4903 15.08839044103183
STARLINK-3879           
1 52473U 22049Y   24076.17254430  .00001453  00000+0  10937-3 0  9998
2 52473  53.2175  67.1113 0001594  83.4308 276.6865 15.08840917103186
STARLINK-3855           
1 52474U 22049Z   24076.31794753  .00000886  00000+0  73742-4 0  9995
2 52474  53.2177  56.4703 0001404  84.8170 275.2982 15.08837417103341
STARLINK-3882           
1 52475U 22049AA  24076.18729417  .00000553  00000+0  52867-4 0  9992
2 52475  53.2167  67.2703 0001978  94.6833 265.4385 15.08840536103188
STARLINK-3835           
1 52476U 22049AB  24076.33636519  .00002231  00000+0  15820-3 0  9992
2 52476  53.2183  56.6185 0001471  80.3416 279.7743 15.08851196103348
